ONEWEB-0710             
1 55173U 23004AK  24073.54958711  .00000080  00000+0  17413-3 0  9992
2 55173  87.9258 170.1439 0001873 113.3384 246.7945 13.17651319 58859
ONEWEB-0711             
1 55174U 23004AL  24073.56817549 -.00000550  00000+0 -15882-2 0  9999
2 55174  87.9032 185.2319 0002780 116.1615 243.9799 13.11417353 57622
ONEWEB-0713             
1 55175U 23004AM  24073.35714846  .00000124  00000+0  31360-3 0  9998
2 55175  87.9037 185.2817 0002268 109.8733 250.2640 13.11418733 57586
ONEWEB-0715             
1 55176U 23004AN  24073.35227676 -.00000051  00000+0 -17991-3 0  9994
2 55176  87.9038 185.2830 0002132 105.7118 254.4245 13.11418070 57621
ONEWEB-0716             
1 55177U 23004AP  24073.54325629  .00000058  00000+0  11743-3 0  9997
2 55177  87.9260 170.1347 0001869  97.0052 263.1292 13.17651498 58855
ONEWEB-0717             
1 55178U 23004AQ  24073.52585579  .00000135  00000+0  31514-3 0  9992
2 55178  87.9259 170.1042 0002646 125.9484 234.1893 13.17651648 58908
ONEWEB-0719             
1 55179U 23004AR  24073.53695231  .00000048  00000+0  89859-4 0  9990
2 55179  87.9256 170.0886 0002243 100.9473 259.1911 13.17650087 58853
ONEWEB-0530             
1 55796U 23029A   24073.49295119  .00000045  00000+0  77797-4 0  9993
2 55796  87.9131  78.7941 0002468  98.9853 261.1560 13.20772665 52154
